{
    "links": {
        "self": "http://www.neowsapp.com/rest/v1/neo/3305485?api_key=iIulBulltgU6a56xZRHN4H3l9WmuAYTsLGpBGhQ2"
    },
    "id": "3305485",
    "neo_reference_id": "3305485",
    "name": "(2005 XC)",
    "designation": "2005 XC",
    "nasa_jpl_url": "http://ssd.jpl.nasa.gov/sbdb.cgi?sstr=3305485",
    "absolute_magnitude_h": 22.7,
    "estimated_diameter": {
        "kilometers": {
            "estimated_diameter_min": 0.0766575574,
            "estimated_diameter_max": 0.1714115092
        },
        "meters": {
            "estimated_diameter_min": 76.6575573531,
            "estimated_diameter_max": 171.4115092306
        },
        "miles": {
            "estimated_diameter_min": 0.0476327831,
            "estimated_diameter_max": 0.1065101409
        },
        "feet": {
            "estimated_diameter_min": 251.5011804664,
            "estimated_diameter_max": 562.3737359442
        }
    },
    "is_potentially_hazardous_asteroid": false,
    "close_approach_data": [
        {
            "close_approach_date": "2005-11-23",
            "close_approach_date_full": "2005-Nov-23 21:50",
            "epoch_date_close_approach": 1132782600000,
            "relative_velocity": {
                "kilometers_per_second": "8.3106889423",
                "kilometers_per_hour": "29918.4801924365",
                "miles_per_hour": "18590.1800951281"
            },
            "miss_distance": {
                "astronomical": "0.043420537",
                "lunar": "16.890588893",
                "kilometers": "6495619.84945619",
                "miles": "4036191.013787822"
            },
            "orbiting_body": "Earth"
        },
        {
            "close_approach_date": "2012-09-07",
            "close_approach_date_full": "2012-Sep-07 00:07",
            "epoch_date_close_approach": 1346976420000,
            "relative_velocity": {
                "kilometers_per_second": "21.319994093",
                "kilometers_per_hour": "76751.9787348558",
                "miles_per_hour": "47690.6947866664"
            },
            "miss_distance": {
                "astronomical": "0.4551953739",
                "lunar": "177.0710004471",
                "kilometers": "68096258.369293593",
                "miles": "42313052.8683458634"
            },
            "orbiting_body": "Earth"
        }
    ],
    "orbital_data": {
        "orbit_id": "16",
        "orbit_determination_date": "2017-04-06 09:09:43",
        "first_observation_date": "2005-12-01",
        "last_observation_date": "2005-12-31",
        "data_arc_in_days": 30,
        "observations_used": 52,
        "orbit_uncertainty": "7",
        "minimum_orbit_intersection": ".0101284",
        "jupiter_tisserand_invariant": "3.374",
        "epoch_osculation": "2459000.5",
        "eccentricity": ".5621514409699176",
        "semi_major_axis": "2.281764920923942",
        "inclination": "3.657104678484751",
        "ascending_node_longitude": "215.6632989986882",
        "orbital_period": "1258.939255288406",
        "perihelion_distance": ".9990674826719379",
        "perihelion_argument": "189.722069709636",
        "aphelion_distance": "3.564462359175947",
        "perihelion_time": "2458732.162677577149",
        "mean_anomaly": "76.73240441620524",
        "mean_motion": ".2859550200597478",
        "equinox": "J2000",
        "orbit_class": {
            "orbit_class_type": "APO",
            "orbit_class_description": "Near-Earth asteroid orbits which cross the Earth’s orbit similar to that of 1862 Apollo",
            "orbit_class_range": "a (semi-major axis) > 1.0 AU; q (perihelion) < 1.017 AU"
        }
    },
    "is_sentry_object": false
}